{
  "type": "FeatureCollection",
  "features": [
    {
      "type": "Feature",
      "properties": {
        "name": "India (Mainland)",
        "description": "Sovereign territory of India"
      },
      "geometry": {
        "type": "Polygon",
        "coordinates": [
          [
            [
              68.1,
              23.4
            ],
            [
              72.5,
              23.0
            ],
            [
              72.0,
              19.0
            ],
            [
              72.8,
              18.9
            ],
            [
              75.0,
              12.0
            ],
            [
              77.0,
              8.0
            ],
            [
              78.2,
              8.1
            ],
            [
              80.0,
              12.5
            ],
            [
              80.2,
              16.0
            ],
            [
              86.0,
              20.0
            ],
            [
              88.0,
              22.0
            ],
            [
              92.0,
              21.0
            ],
            [
              92.2,
              24.0
            ],
            [
              94.5,
              24.5
            ],
            [
              97.0,
              28.0
            ],
            [
              95.0,
              29.0
            ],
            [
              92.0,
              27.5
            ],
            [
              88.5,
              27.3
            ],
            [
              88.0,
              26.5
            ],
            [
              84.0,
              27.2
            ],
            [
              80.0,
              28.8
            ],
            [
              79.0,
              31.0
            ],
            [
              78.5,
              32.0
            ],
            [
              76.5,
              33.0
            ],
            [
              74.5,
              34.5
            ],
            [
              74.0,
              35.5
            ],
            [
              75.0,
              36.5
            ],
            [
              77.0,
              35.5
            ],
            [
              78.5,
              35.5
            ],
            [
              80.0,
              34.5
            ],
            [
              79.0,
              31.0
            ],
            [
              74.0,
              30.0
            ],
            [
              71.0,
              28.0
            ],
            [
              68.5,
              25.0
            ],
            [
              68.1,
              23.4
            ]
          ]
        ]
      }
    },
    {
      "type": "Feature",
      "properties": {
        "name": "Nepal",
        "description": "Neighboring country of India"
      },
      "geometry": {
        "type": "Polygon",
        "coordinates": [
          [
            [
              80.0,
              28.8
            ],
            [
              81.5,
              28.7
            ],
            [
              83.0,
              27.5
            ],
            [
              84.5,
              27.3
            ],
            [
              86.0,
              26.6
            ],
            [
              88.0,
              26.5
            ],
            [
              88.2,
              27.9
            ],
            [
              86.5,
              28.2
            ],
            [
              84.0,
              28.6
            ],
            [
              83.0,
              29.2
            ],
            [
              81.5,
              30.0
            ],
            [
              80.0,
              30.2
            ],
            [
              80.0,
              28.8
            ]
          ]
        ]
      }
    },
    {
      "type": "Feature",
      "properties": {
        "name": "POK / Line of Control (LOC)",
        "description": "Line of Control / Pakistan Occupied Kashmir region boundary"
      },
      "geometry": {
        "type": "LineString",
        "coordinates": [
          [
            74.0,
            32.5
          ],
          [
            74.3,
            33.3
          ],
          [
            74.0,
            34.0
          ],
          [
            74.8,
            34.5
          ],
          [
            75.0,
            35.0
          ],
          [
            76.0,
            35.1
          ],
          [
            77.0,
            35.0
          ]
        ]
      }
    }
  ]
}